#aV2020 12  7  0  0  0.00000000     288 DD+AD WGS84 FIT  NGA
## 2135  86400.00000000   300.00000000 59190 0.0000000000000
+   32     1  2  3  4  5  6  7  8  9 10 11 12 13 14 15 16 17
+         18 19 20 21 22 23 24 25 26 27 28 29 30 31 32  0  0
+          0  0  0  0  0  0  0  0  0  0  0  0  0  0  0  0  0
+          0  0  0  0  0  0  0  0  0  0  0  0  0  0  0  0  0
+          0  0  0  0  0  0  0  0  0  0  0  0  0  0  0  0  0
++         2  2  2  2  2  2  2  2  2  2  2  2  2  2  2  2  2
++         2  2  2  2  2  2  2  2  2  2  2  2  2  2  2  0  0
++         0  0  0  0  0  0  0  0  0  0  0  0  0  0  0  0  0
++         0  0  0  0  0  0  0  0  0  0  0  0  0  0  0  0  0
++         0  0  0  0  0  0  0  0  0  0  0  0  0  0  0  0  0
%c cc cc ccc ccc cccc cccc cccc cccc ccccc ccccc ccccc ccccc
%c cc cc ccc ccc cccc cccc cccc cccc ccccc ccccc ccccc ccccc
%f  0.0000000  0.000000000  0.00000000000  0.000000000000000
%f  0.0000000  0.000000000  0.00000000000  0.000000000000000
%i    0    0    0    0      0      0      0      0         0
%i    0    0    0    0      0      0      0      0         0
/*      NGA, ST. LOUIS,MO.                                  
/*   EPHEMERIS COMPUTED FROM 2 DAYS OF DATA                 
/*   EPOCHA v5 SMOOTHER                                     
/*   G1762 IERS2010 SATAF SATAPC                            
*  2020 12  7  2 30  0.00000000
P  1  14336.757626 -21607.992799   4615.783410    799.105870                    
V  1   -665.796328   6612.967693  31733.159538     -0.048555                    
P  2 -16526.154943   4066.606531 -19736.272193   -551.406790                    
V  2   8870.640551 -25023.959779 -12194.010411     -0.045195                    
P  3  15652.426682 -12888.049769 -17186.675897    -23.183402                    
V  3  21746.851155    230.516008  19822.323638     -0.099754                    
P  4   6850.986660 -15792.704726 -20210.953509   -162.059205                    
V  4  14474.824133  21245.987566 -11738.126177     -0.033827                    
P  5 -26544.755389   2502.344682   -221.479688    -27.717450                    
V  5   -188.217121  -2856.221035 -31493.285261     -0.009498                    
P  6 -10116.977571 -11844.706436 -21445.208902     -3.392782                    
V  6  12562.097847 -24265.421611   7493.584235     -0.009088                    
P  7   3793.517011 -24000.359085  10448.991075   -428.894502                    
V  7   8526.227567 -10228.682941 -27931.881700     -0.074558                    
P  8  13236.503538  -7292.542945  21864.587251     -1.992942                    
V  8  15749.052775  22782.285504  -1662.394650     -0.013550                    
P  9  -4303.436168 -22681.244355 -13180.049688   -298.397002                    
V  9  11490.877144  12304.802845 -25068.014833     -0.045143                    
P 10  14543.301213  12043.099903  18879.855031    -10.077048                    
V 10 -23528.674083   2776.005316  16178.479124     -0.089007                    
P 11  12019.678325 -17193.695249  16036.111460    -88.374277                    
V 11   3078.563461  21164.127711  19461.064597      0.105590                    
P 12 -18925.754924  10436.420913 -15570.720828     30.395969                    
V 12 -19364.281641  -1786.370070  22834.492789     -0.051842                    
P 13 -17001.418594  -3214.654562  20048.161143     72.393059                    
V 13 -10511.768173 -23478.233847 -12479.165555      0.039603                    
P 14 -11488.568144 -13594.206860  19710.141640     56.224122                    
V 14  25014.281883  -1692.258620  13407.243765      0.119436                    
P 15 -12437.280794   9675.217982  21032.925890   -185.014012                    
V 15 -17886.420710 -21101.806025   -491.962311      0.025997                    
P 16  26804.606938    622.611477     30.728906   -246.772040                    
V 16    262.804642   1952.317641 -31787.087401     -0.053959                    
P 17 -14808.000075 -21852.480085  -2591.736945    363.708051                    
V 17   -104.007656  -4364.501830  32004.880787      0.049823                    
P 18  -3041.315219  23534.867839  11866.261339    329.861590                    
V 18  -8989.588122  12327.991276 -26793.153524      0.040599                    
P 19 -17119.246555 -17719.342339 -10305.004781    -68.656470                    
V 19  -4296.275529 -11996.453666  28472.219769      0.050191                    
P 20   1924.298683  15624.030679  21314.332181    525.715963                    
V 20 -26819.303492   5279.111449  -1706.746665     -0.001600                    
P 21  16825.778554 -15720.144115  13630.161977     75.247750                    
V 21  -3925.149431  15969.904574  24985.880883      0.035769                    
P 22  21899.725548 -10941.793962  -9907.411589   -719.185181                    
V 22  13346.028384   1351.163682  27624.823653      0.058390                    
P 23   2870.549297  14942.428524  21741.538170    107.883443                    
V 23 -27542.745990   2653.756610   1780.516278      0.033958                    
P 24 -15087.002555  19690.268387   8703.042114      5.480678                    
V 24   1023.428210 -12047.631417  28683.857623     -0.004592                    
P 25  -5453.389743  15192.946828 -21289.796808     35.202865                    
V 25 -26503.623313    995.488357   7854.050417      0.069897                    
P 26  23466.941985   5778.463349 -11340.718321     10.464565                    
V 26 -13928.572797   4124.801743 -26558.358855      0.059440                    
P 27  18558.504193   5727.915729  18126.942205    -29.464024                    
V 27  11918.651990  19877.107911 -17993.309752     -0.081162                    
P 28 -14619.193408 -12944.551736  18497.231745    646.381778                    
V 28  22379.707622   -643.152374  17970.495160     -0.047980                    
P 29   1465.271811  22142.910919 -14597.643355   -251.040952                    
V 29 -10490.031738 -15250.653267 -24287.877044     -0.075055                    
P 30  -4313.499201 -19393.846829  17571.322424   -348.083946                    
V 30  12371.393370 -18767.635278 -17939.342382     -0.063964                    
P 31  12274.776001   9407.915685 -21626.497269    -86.022419                    
V 31 -13176.914237  23979.500010   3422.472738     -0.023701                    
P 32  16542.670339  20669.708803  -2948.020065      6.270175                    
V 32   -161.714271   4743.557812  31264.808550      0.027773                    
EOF
